#dP2024  2 10  6  0  0.00000000      96 __u+U IGS20 EXT  IAC
## 2300 540000.00000000   900.00000000 60350 0.2500000000000
+  118   C06C07C08C09C10C11C12C13C14C16C19C20C21C22C23C24C25
+        C26C27C28C29C30C32C33C34C35C36C37C38C39C40C41C42C43
+        C44C45C46E02E03E04E05E07E08E09E10E11E12E13E14E15E18
+        E19E21E24E25E26E27E30E31E33E34E36G01G03G04G05G06G07
+        G08G09G10G11G12G13G14G15G16G17G18G19G20G21G22G23G24
+        G25G26G27G28G29G30G31G32J02J03J04R01R02R03R04R05R07
+        R08R09R11R12R13R14R15R16R17R18R19R20R21R22R24R26  0
++         9 10 10  9 10  8  8 10  9 10  8  9  8  8  7  8  8
++         7  9  9  9 10 10  7  9 10 10  9  8 10 10  9  8  9
++         8  8  9  7  8  7  7  9  8  7  7  7  7  8  8  7  7
++         7  8  8  8  8  7  7  7  7  8  8  7  7  8  7  7  9
++         8  8  7  8  7 10  7  9  7  7  7  8  7  7  7  7  8
++         8  7  7  8  7  8  8  7 11  0  9  8  9  8  7  8  8
++         8  9  7  9 10  7  7  9  9  7  9  7  9  8  9  9  0
%c M  cc GPS ccc cccc cccc cccc cccc ccccc ccccc ccccc ccccc
%c cc cc ccc ccc cccc cccc cccc cccc ccccc ccccc ccccc ccccc
%f  0.0000000  0.000000000  0.00000000000  0.000000000000000
%f  0.0000000  0.000000000  0.00000000000  0.000000000000000
%i    0    0    0    0      0      0      0      0         0
%i    0    0    0    0      0      0      0      0         0
/* IAC                                ULTRA-RAPID PREDICTION
/* S/V CLOCKS ARE ALIGNED TO GNSS TIME                      
/* G:C1WC2W R:C1PC2P E:C1XC5X C:C2IC6I J:C1CC2S             
/* PCV:IGS20_2290 OL/AL:FES2004  NONE     YN ORB:CoN CLK:CoN
*  2024 02 10 19 45  0.00000000
PC06  -8949.193112  40525.102706   8339.344520    101.852774
PC07  -6037.859588  27320.432333 -31425.957025   -780.449059
PC08 -19647.171568  26744.094725  25869.736333     48.083904
PC09  -4718.278211  42231.670422   -368.311462   -472.427994
PC10   1766.428366  29304.940830 -29786.300149     90.384569
PC11  15875.774833    931.989843  23001.975563    403.897321
PC12  13944.097714  20340.079141  13107.200665    773.105834
PC13 -10233.224018  27171.057012  30622.412095    416.190097
PC14  26739.923778   1707.509398  -7679.141437    161.534295
PC16 -10158.382521  39762.381520  10673.425597   -332.160319
PC19 -22548.942880   4964.079585  15718.008243   -928.080632
PC20 -27005.402179  -7095.332123    197.994988   -150.211650
PC21  15364.335017  15998.602809  16937.066424   -962.385277
PC22  -4900.328014  14866.853267  23103.910814   -114.576462
PC23  13630.372925 -22702.559428   8811.986645   -782.097741
PC24  18460.028875   2758.641602 -20775.733926    872.501697
PC25  22169.082167 -14977.937328  -7987.112605    323.042264
PC26   4422.900767  17565.224054 -21241.410533   -247.334939
PC27 -10255.622047 -25453.815423  -5043.010509    269.350888
PC28   1035.133568 -25753.231097  10700.768696    204.829498
PC29 -13378.464334   9993.440999 -22362.925017    240.057776
PC30 -17192.171125 -11625.877695 -18649.531397    -23.700900
PC32 -15453.056040 -15883.238512 -16949.647807   -565.691594
PC33  22566.149945  -5048.294822 -15603.444027   -947.818371
PC34  17323.082472  10060.420337  19427.578414    366.507886
PC35   -163.538901  25777.136447 -10752.480175    436.690902
PC36 -22572.890119  14058.348239   8454.978489    -19.686185
PC37  -3525.443218 -17983.805238  21053.446759   -935.476111
PC38 -25258.352013  28211.956972  18447.298678    136.013536
PC39 -11854.663812  36757.511072  17234.472827     -7.063214
PC40 -10181.142017  21246.875305 -34951.363238    -55.917627
PC41   5735.228500 -14636.222678 -22999.276281   -889.164425
PC42  26657.089472   8080.950266   1478.550043   -455.693597
PC43  13918.376177  -8987.436280  22443.990446     59.931099
PC44  11142.728841  25147.890978   4805.513010    380.603535
PC45 -13502.891024  22655.250244  -9091.836947    -69.261516
PC46 -18855.963812  -1859.859318  20460.565822   -122.781146
PE02 -28758.296157    875.841698   6895.769089    102.337222
PE03 -22912.482500  -7831.925152  17029.013251    -92.965194
PE04  12631.258928 -11299.492138 -24260.273653   -324.266570
PE05 -19679.846543 -22109.255270    -20.394986   4718.803602
PE07   4539.169081  23453.444743  17481.078207   -103.091536
PE08 -13068.176817  10593.745666  24356.455024   -221.852538
PE09  -4533.621008 -23348.472245 -17623.095943   -331.412297
PE10  11544.146844 -26967.030035   3954.583831   -600.950712
PE11   4971.297255 -28419.614478  -6575.415441   3253.544948
PE12  15802.246796 -21571.881621  12670.384164   -900.747347
PE13  -5429.636347  28498.139982   5921.594173    -20.147347
PE14  18029.463154  13897.713774   6098.118355     35.720102
PE15 -15912.020476  21218.981301 -13146.326492    -85.084145
PE18 -25756.624609 -15014.098983 -12865.796897    311.938689
PE19  23135.866474  10062.113027 -15477.770614   -640.063726
PE21  17484.567539  11298.215330 -21054.759711   -578.362388
PE24   5036.865621 -17499.260156  23318.060857   -591.067595
PE25 -17101.528049 -11504.062902  21237.269383      0.709231
PE26   8586.559514  18509.368015  21455.360617    365.013477
PE27  -4482.728856  17456.955597 -23484.170024   -271.473371
PE30 -23743.515241  13111.929430 -11850.099849   -896.427345
PE31  23576.723434 -13254.117853  12034.946420    -15.710954
PE33  16792.528512   -965.141138  24364.240360      7.385165
PE34 -16918.012717   1632.690849 -24232.975474    -93.917141
PE36  -8051.471213 -18998.765154 -21209.003198   -184.137111
PG01  12299.646860 -22192.959779   6918.728863    169.041955
PG03  21047.981376 -12023.734723 -10862.509369    184.800279
PG04  11033.173544 -10357.016612 -21809.333260    288.462837
PG05 -25901.002248   5939.865098  -1548.087046   -161.314453
PG06  -8298.518654 -15825.534020 -19540.924529    412.145604
PG07   4279.559547 -25544.937208   5072.138167    -58.836396
PG08  17372.796355  -2427.042621  19967.603458   -166.370611
PG09  -1380.836511 -19611.379749 -17914.098331     87.829181
PG10  11095.638462  12031.867758  21193.099892     28.359047
PG11 -14571.684760  -4037.540279 -21809.478669   -571.361663
PG12 -21968.637009  10732.693140 -10577.088560   -476.698918
PG13 -19184.942821  -8225.874250  16349.948988    624.327360
PG14  -6770.390894 -14358.327614  21335.079300    322.313150
PG15 -17156.526802   4486.893891  19342.573832    126.358037
PG16  25906.051183   1535.270393  -7027.909376   -365.489796
PG17 -11259.130057 -22710.971241   8086.115625    717.400211
PG18  -4344.948582  25442.210183   5851.537684   -552.683205
PG19 -16905.116366 -20667.938003  -1935.510534    438.858427
PG20 -22466.461666  -1417.669375 -13905.244428    387.994590
PG21  15611.270901 -11019.270799  18494.157992    135.395767
PG22 -14176.100879 -11838.101974  19409.043457     33.370524
PG23  -2920.408594  15561.569505  21314.561738    153.439768
PG24 -14830.152831  15174.585346  15310.173828   -429.553513
PG25 -12008.429086  15904.499287 -17763.459571    488.183312
PG26  20465.667912   6293.921393 -16087.393248    191.583667
PG27  21215.035925  10090.580002  12526.075119     -2.873568
PG28   7688.811896  18307.019379 -17662.916057   -126.732086
PG29  -1574.644631  18710.073845 -18793.709790   -607.220071
PG30  -3653.459719 -22280.836727  13899.997172   -434.267278
PG31  13034.967440   8974.389717 -21493.760216   -227.720544
PG32  15213.970748  21380.622430   4975.178932   -610.898074
PJ02 -34722.627833  15918.033745 -13215.439124     -1.867985
PJ03      0.000000      0.000000      0.000000     -0.229882
PJ04 -24965.239648  28341.746599  24509.948949     50.945766
PR01 -10069.567168 -14148.005665 -18683.604208     76.831369
PR02 -21862.426191 -12531.241753  -3672.108021    -22.461373
PR03 -21495.504056  -3256.227407  13341.520658     94.279230
PR04  -9315.061309   7153.325508  22674.162052    222.872383
PR05   7790.606912  14034.975945  19848.294605    126.704256
PR07  21190.268144   2846.985244 -13908.746726     75.524572
PR08   9132.435657  -7392.662122 -22581.445125    -74.379678
PR09  12814.275289   3911.440803 -21677.230201    169.280253
PR11  18761.734259 -16435.736868   5309.028980     34.757972
PR12   3892.281536 -14733.527075  20477.182328     36.600057
PR13 -10741.645764  -5579.185611  22430.601143    -44.233080
PR14 -21429.692602   8923.590011  10596.769108     26.047195
PR15 -18131.981942  16630.678268  -6727.294582     82.308075
PR16  -4187.262600  14767.165690 -20381.196632     23.180163
PR17 -10377.471806   2743.408001 -23126.949486     60.151429
PR18  -6026.696442  18922.382931 -16025.919058    126.722747
PR19   -188.386694  25399.676629  -2362.516712   -265.324073
PR20   8204.697073  16992.456132  17201.292500   -108.081997
PR21  10284.445154  -3033.788457  23149.067940    -75.952015
PR22   6469.849374 -19470.284536  15173.688253    107.468591
PR24  -9385.976561 -16103.460309 -17398.466849    -43.397497
PR26   9918.617735  -6967.021860 -22417.185422   -199.031571
EOF
